{
  "type": "FeatureCollection",
  "features": [
    {
      "type": "Feature",
      "properties": {
        "norad_id": 58647,
        "name": "TIANMU-1 13",
        "group": "weather",
        "lat": -18.16129900084786,
        "lon": -177.12039587575163,
        "alt_km": 496.19681174635025,
        "timestamp": "2025-12-11T15:53:39.185742+00:00",
        "meta_object_name": "TIANMU-1 13",
        "meta_object_id": "2023-205C",
        "meta_epoch": "2025-12-11T07:09:01.845792",
        "meta_mean_motion": 15.24511098,
        "meta_eccentricity": 0.00060375,
        "meta_inclination": 97.3626,
        "meta_ra_of_asc_node": 4.9526,
        "meta_arg_of_pericenter": 273.7648,
        "meta_mean_anomaly": 86.2899,
        "meta_ephemeris_type": 0,
        "meta_classification_type": "U",
        "meta_norad_cat_id": 58647,
        "meta_element_set_no": 999,
        "meta_rev_at_epoch": 10885,
        "meta_bstar": 0.00091939532,
        "meta_mean_motion_dot": 0.00022597,
        "meta_mean_motion_ddot": 0,
        "tle_line1": "1 58647U 23205C   25345.29793803  .00022597  00000+0  91940-3 0  9992",
        "tle_line2": "2 58647  97.3626   4.9526 0006037 273.7648  86.2899 15.24511098108854"
      },
      "geometry": {
        "type": "Point",
        "coordinates": [
          -177.12039587575163,
          -18.16129900084786
        ]
      }
    },
    {
      "type": "Feature",
      "properties": {
        "norad_id": 58648,
        "name": "TIANMU-1 14",
        "group": "weather",
        "lat": -69.3909014405547,
        "lon": 24.752145364615995,
        "alt_km": 495.00702536172867,
        "timestamp": "2025-12-11T15:53:39.185753+00:00",
        "meta_object_name": "TIANMU-1 14",
        "meta_object_id": "2023-205D",
        "meta_epoch": "2025-12-11T05:10:35.143392",
        "meta_mean_motion": 15.2447676,
        "meta_eccentricity": 0.00068657,
        "meta_inclination": 97.3559,
        "meta_ra_of_asc_node": 4.2219,
        "meta_arg_of_pericenter": 279.3551,
        "meta_mean_anomaly": 80.691,
        "meta_ephemeris_type": 0,
        "meta_classification_type": "U",
        "meta_norad_cat_id": 58648,
        "meta_element_set_no": 999,
        "meta_rev_at_epoch": 10884,
        "meta_bstar": 0.00041408597,
        "meta_mean_motion_dot": 0.00010113,
        "meta_mean_motion_ddot": 0,
        "tle_line1": "1 58648U 23205D   25345.21568453  .00010113  00000+0  41409-3 0  9992",
        "tle_line2": "2 58648  97.3559   4.2219 0006865 279.3551  80.6910 15.24476760108843"
      },
      "geometry": {
        "type": "Point",
        "coordinates": [
          24.752145364615995,
          -69.3909014405547
        ]
      }
    },
    {
      "type": "Feature",
      "properties": {
        "norad_id": 58660,
        "name": "TIANMU-1 19",
        "group": "weather",
        "lat": 8.537038514702285,
        "lon": -82.17519399078168,
        "alt_km": 484.11356322702886,
        "timestamp": "2025-12-11T15:53:39.185763+00:00",
        "meta_object_name": "TIANMU-1 19",
        "meta_object_id": "2023-208A",
        "meta_epoch": "2025-12-11T07:17:13.658784",
        "meta_mean_motion": 15.27808532,
        "meta_eccentricity": 0.00040385,
        "meta_inclination": 97.4385,
        "meta_ra_of_asc_node": 96.3432,
        "meta_arg_of_pericenter": 259.7085,
        "meta_mean_anomaly": 100.3699,
        "meta_ephemeris_type": 0,
        "meta_classification_type": "U",
        "meta_norad_cat_id": 58660,
        "meta_element_set_no": 999,
        "meta_rev_at_epoch": 10860,
        "meta_bstar": 0.00055883652,
        "meta_mean_motion_dot": 0.0001512,
        "meta_mean_motion_ddot": 0,
        "tle_line1": "1 58660U 23208A   25345.30363031  .00015120  00000+0  55884-3 0  9999",
        "tle_line2": "2 58660  97.4385  96.3432 0004038 259.7085 100.3699 15.27808532108605"
      },
      "geometry": {
        "type": "Point",
        "coordinates": [
          -82.17519399078168,
          8.537038514702285
        ]
      }
    },
    {
      "type": "Feature",
      "properties": {
        "norad_id": 58661,
        "name": "TIANMU-1 20",
        "group": "weather",
        "lat": -60.11409366931269,
        "lon": -95.98165813596529,
        "alt_km": 482.2123869520801,
        "timestamp": "2025-12-11T15:53:39.185773+00:00",
        "meta_object_name": "TIANMU-1 20",
        "meta_object_id": "2023-208B",
        "meta_epoch": "2025-12-11T06:59:23.748576",
        "meta_mean_motion": 15.289984,
        "meta_eccentricity": 0.00062933,
        "meta_inclination": 97.4323,
        "meta_ra_of_asc_node": 96.7771,
        "meta_arg_of_pericenter": 272.1845,
        "meta_mean_anomaly": 87.8675,
        "meta_ephemeris_type": 0,
        "meta_classification_type": "U",
        "meta_norad_cat_id": 58661,
        "meta_element_set_no": 999,
        "meta_rev_at_epoch": 10867,
        "meta_bstar": 0.00052124222,
        "meta_mean_motion_dot": 0.00014624,
        "meta_mean_motion_ddot": 0,
        "tle_line1": "1 58661U 23208B   25345.29124709  .00014624  00000+0  52124-3 0  9997",
        "tle_line2": "2 58661  97.4323  96.7771 0006293 272.1845  87.8675 15.28998400108671"
      },
      "geometry": {
        "type": "Point",
        "coordinates": [
          -95.98165813596529,
          -60.11409366931269
        ]
      }
    },
    {
      "type": "Feature",
      "properties": {
        "norad_id": 58662,
        "name": "TIANMU-1 21",
        "group": "weather",
        "lat": -55.26980737501346,
        "lon": -91.81027945754911,
        "alt_km": 474.8556945750988,
        "timestamp": "2025-12-11T15:53:39.185783+00:00",
        "meta_object_name": "TIANMU-1 21",
        "meta_object_id": "2023-208C",
        "meta_epoch": "2025-12-11T07:01:34.687776",
        "meta_mean_motion": 15.31501379,
        "meta_eccentricity": 0.00058868,
        "meta_inclination": 97.4371,
        "meta_ra_of_asc_node": 98.6807,
        "meta_arg_of_pericenter": 266.2962,
        "meta_mean_anomaly": 93.7606,
        "meta_ephemeris_type": 0,
        "meta_classification_type": "U",
        "meta_norad_cat_id": 58662,
        "meta_element_set_no": 999,
        "meta_rev_at_epoch": 10877,
        "meta_bstar": 0.00057183928,
        "meta_mean_motion_dot": 0.00017346,
        "meta_mean_motion_ddot": 0,
        "tle_line1": "1 58662U 23208C   25345.29276259  .00017346  00000+0  57184-3 0  9991",
        "tle_line2": "2 58662  97.4371  98.6807 0005886 266.2962  93.7606 15.31501379108777"
      },
      "geometry": {
        "type": "Point",
        "coordinates": [
          -91.81027945754911,
          -55.26980737501346
        ]
      }
    },
    {
      "type": "Feature",
      "properties": {
        "norad_id": 58663,
        "name": "TIANMU-1 22",
        "group": "weather",
        "lat": 6.381105368666054,
        "lon": -82.40226310123512,
        "alt_km": 486.2259794985557,
        "timestamp": "2025-12-11T15:53:39.185794+00:00",
        "meta_object_name": "TIANMU-1 22",
        "meta_object_id": "2023-208D",
        "meta_epoch": "2025-12-11T07:16:35.146848",
        "meta_mean_motion": 15.27566099,
        "meta_eccentricity": 0.0002705,
        "meta_inclination": 97.4379,
        "meta_ra_of_asc_node": 96.4025,
        "meta_arg_of_pericenter": 295.0286,
        "meta_mean_anomaly": 65.0672,
        "meta_ephemeris_type": 0,
        "meta_classification_type": "U",
        "meta_norad_cat_id": 58663,
        "meta_element_set_no": 999,
        "meta_rev_at_epoch": 10861,
        "meta_bstar": 0.00052490639,
        "meta_mean_motion_dot": 0.0001409,
        "meta_mean_motion_ddot": 0,
        "tle_line1": "1 58663U 23208D   25345.30318457  .00014090  00000+0  52491-3 0  9990",
        "tle_line2": "2 58663  97.4379  96.4025 0002705 295.0286  65.0672 15.27566099108613"
      },
      "geometry": {
        "type": "Point",
        "coordinates": [
          -82.40226310123512,
          6.381105368666054
        ]
      }
    },
    {
      "type": "Feature",
      "properties": {
        "norad_id": 58700,
        "name": "TIANMU-1 15",
        "group": "weather",
        "lat": -45.381956038741706,
        "lon": 174.77029645991664,
        "alt_km": 495.07213671488626,
        "timestamp": "2025-12-11T15:53:39.185803+00:00",
        "meta_object_name": "TIANMU-1 15",
        "meta_object_id": "2024-004A",
        "meta_epoch": "2025-12-11T06:38:38.779872",
        "meta_mean_motion": 15.24648517,
        "meta_eccentricity": 0.00052496,
        "meta_inclination": 97.4631,
        "meta_ra_of_asc_node": 166.7521,
        "meta_arg_of_pericenter": 304.7839,
        "meta_mean_anomaly": 55.2904,
        "meta_ephemeris_type": 0,
        "meta_classification_type": "U",
        "meta_norad_cat_id": 58700,
        "meta_element_set_no": 999,
        "meta_rev_at_epoch": 10712,
        "meta_bstar": 0.00044826912,
        "meta_mean_motion_dot": 0.00011007,
        "meta_mean_motion_ddot": 0,
        "tle_line1": "1 58700U 24004A   25345.27683773  .00011007  00000+0  44827-3 0  9998",
        "tle_line2": "2 58700  97.4631 166.7521 0005249 304.7839  55.2904 15.24648517107123"
      },
      "geometry": {
        "type": "Point",
        "coordinates": [
          174.77029645991664,
          -45.381956038741706
        ]
      }
    }
  ]
}